NORAD_CAT_ID,OBJECT_NAME,OBJECT_TYPE,EPOCH,MEAN_MOTION,ECCENTRICITY,INCLINATION,RA_OF_ASC_NODE,ARG_OF_PERICENTER,MEAN_ANOMALY,BSTAR,MEAN_MOTION_DOT,MEAN_MOTION_DDOT,TLE_LINE0,TLE_LINE1,TLE_LINE2,SEMIMAJOR_AXIS,PERIOD,APOGEE,PERIGEE,DECAYED
52484.0,STARLINK-3887,PAYLOAD,2022-09-06 06:00:00,15.08810446,0.0001304,53.2197,47.2329,52.308,198.1923,0.0024074,0.00038203,0.0,0 STARLINK-3887,1 52484U 22049AK  22249.25001157  .00038203  00000-0  24074-2 0  9995,2 52484  53.2197  47.2329 0001304  52.3080 198.1923 15.08810446 19117,6917.971,95.439,540.738,538.934,0.0
52484.0,STARLINK-3887,PAYLOAD,2022-09-06 14:00:01,15.0884815,0.0001359,53.2197,45.7374,53.1911,208.8757,-0.001144,-0.00018452,0.0,0 STARLINK-3887,1 52484U 22049AK  22249.58334491 -.00018452  00000-0 -11440-2 0  9990,2 52484  53.2197  45.7374 0001359  53.1911 208.8757 15.08848150  1301,6917.855,95.437,540.661,538.78,0.0
52484.0,STARLINK-3887,PAYLOAD,2022-09-06 22:00:00,15.0882516,0.0001464,53.2193,44.242,45.8786,227.7871,0.0026901,0.00042768,0.0,0 STARLINK-3887,1 52484U 22049AK  22249.91667824  .00042768  00000-0  26901-2 0  9999,2 52484  53.2193  44.2420 0001464  45.8786 227.7871 15.08825160 19210,6917.926,95.438,540.804,538.778,0.0
52484.0,STARLINK-3887,PAYLOAD,2022-09-07 14:00:01,15.088800199999998,0.0001395999999999,53.2193,41.2484,54.1096,242.7498,-0.003341,-0.00053126,0.0,0 STARLINK-3887,1 52484U 22049AK  22250.58334491 -.00053126  00000-0 -33410-2 0  9990,2 52484  53.2193  41.2484 0001396  54.1096 242.7498 15.08880020 19317,6917.7580000000025,95.435,540.589,538.6569999999998,0.0
52484.0,STARLINK-3887,PAYLOAD,2022-09-07 22:00:00,15.08826664,0.0001549,53.2189,39.7529,49.2979,259.1841,0.0014773,0.00023293,0.0,0 STARLINK-3887,1 52484U 22049AK  22250.91667824  .00023293  00000-0  14773-2 0  9997,2 52484  53.2189  39.7529 0001549  49.2979 259.1841 15.08826664  1307,6917.920999999999,95.438,540.8580000000002,538.715,0.0
52484.0,STARLINK-3887,PAYLOAD,2022-09-08 06:00:00,15.08820163,0.0001415,53.2189,38.2547,57.163,262.922,0.0031835,0.00050714,0.0,0 STARLINK-3887,1 52484U 22049AK  22251.25001157  .00050714  00000-0  31835-2 0  9992,2 52484  53.2189  38.2547 0001415  57.1630 262.9220 15.08820163 19417,6917.941,95.439,540.785,538.827,0.0
52484.0,STARLINK-3887,PAYLOAD,2022-09-08 14:00:01,15.08864969,0.0001526,53.2191,36.7594,55.9495,275.7199,-0.0016675,-0.00026746,0.0,0 STARLINK-3887,1 52484U 22049AK  22251.58334491 -.00026746  00000-0 -16675-2 0  9993,2 52484  53.2191  36.7594 0001526  55.9495 275.7199 15.08864969  1301,6917.804,95.436,540.725,538.613,0.0
52484.0,STARLINK-3887,PAYLOAD,2022-09-08 22:00:00,15.08848813,0.0001649,53.2187,35.2636,50.3977,292.8902,-0.00040194,-6.681e-05,0.0,0 STARLINK-3887,1 52484U 22049AK  22251.91667824 -.00006681  00000-0 -40194-3 0  9999,2 52484  53.2187  35.2636 0001649  50.3977 292.8902 15.08848813 19511,6917.853,95.437,540.859,538.578,0.0
52484.0,STARLINK-3887,PAYLOAD,2022-09-09 14:00:01,15.08872244,0.0001641,53.2191,32.2703,55.6238,310.858,-0.0031151,-0.00049568,0.0,0 STARLINK-3887,1 52484U 22049AK  22252.58334491 -.00049568  00000-0 -31151-2 0  9997,2 52484  53.2191  32.2703 0001641  55.6238 310.8580 15.08872244  1304,6917.781999999997,95.436,540.7819999999998,538.512,0.0
52484.0,STARLINK-3887,PAYLOAD,2022-09-09 22:00:00,15.08833097,0.0001626,53.219,30.7744,47.7324,330.3636,2.0382e-05,3.6e-07,0.0,0 STARLINK-3887,1 52484U 22049AK  22252.91667824  .00000036  00000-0  20382-4 0  9994,2 52484  53.2190  30.7744 0001626  47.7324 330.3636 15.08833097  1304,6917.901,95.438,540.891,538.6419999999998,0.0
52484.0,STARLINK-3887,PAYLOAD,2022-09-10 06:00:02,15.08806473,0.0001435,53.2193,29.2763,52.4057,337.3647,0.0020691,0.00032765,0.0,0 STARLINK-3887,1 52484U 22049AK  22253.25002315  .00032765  00000-0  20691-2 0  9995,2 52484  53.2193  29.2763 0001435  52.4057 337.3647 15.08806473 19716,6917.983,95.44,540.841,538.855,0.0
52484.0,STARLINK-3887,PAYLOAD,2022-09-10 14:00:01,15.08834825,0.0001575999999999,53.2196,27.7814,49.6046,351.6659,-0.0012208,-0.00019662,0.0,0 STARLINK-3887,1 52484U 22049AK  22253.58334491 -.00019662  00000-0 -12208-2 0  9992,2 52484  53.2196  27.7814 0001576  49.6046 351.6659 15.08834825  1301,6917.896,95.438,540.851,538.6709999999998,0.0
52484.0,STARLINK-3887,PAYLOAD,2022-09-10 22:00:00,15.0884513,0.0001675,53.2197,26.2855,44.4341,8.4156,-0.0013272,-0.00021351,0.0,0 STARLINK-3887,1 52484U 22049AK  22253.91667824 -.00021351  00000-0 -13272-2 0  9998,2 52484  53.2197  26.2855 0001675  44.4341   8.4156 15.08845130 19817,6917.865,95.437,540.888,538.571,0.0
52484.0,STARLINK-3887,PAYLOAD,2022-09-11 14:00:01,15.08835015,0.0001686,53.219,23.2912,53.0901,22.9271,-0.00030741,-5.177e-05,0.0,0 STARLINK-3887,1 52484U 22049AK  22254.58334491 -.00005177  00000-0 -30741-3 0  9992,2 52484  53.2190  23.2912 0001686  53.0901  22.9271 15.08835015  1306,6917.896,95.438,540.927,538.594,0.0
52484.0,STARLINK-3887,PAYLOAD,2022-09-11 22:00:00,15.08843779,0.0001545,53.2177,21.7941,54.1882,33.4135,-0.0004878999999999,-8.045e-05,0.0,0 STARLINK-3887,1 52484U 22049AK  22254.91667824 -.00008045  00000-0 -48790-3 0  9998,2 52484  53.2177  21.7941 0001545  54.1882  33.4135 15.08843779  1302,6917.869000000002,95.437,540.803,538.665,0.0
52484.0,STARLINK-3887,PAYLOAD,2022-09-12 12:00:00,15.0885941,0.0001629999999999,53.221,19.1779,47.809,330.1011,-0.0011092,-0.00017907,0.0,0 STARLINK-3887,1 52484U 22049AK  22255.50001157 -.00017907  00000-0 -11092-2 0  9996,2 52484  53.2210  19.1779 0001630  47.8090 330.1011 15.08859410 20057,6917.821,95.436,540.814,538.558,0.0
52484.0,STARLINK-3887,PAYLOAD,2022-09-12 14:00:01,15.088604,0.0001692,53.2208,18.8043,45.6448,65.1681,-0.0016972,-0.00027213,0.0,0 STARLINK-3887,1 52484U 22049AK  22255.58334491 -.00027213  00000-0 -16972-2 0  9997,2 52484  53.2208  18.8043 0001692  45.6448  65.1681 15.08860400  1301,6917.818,95.436,540.854,538.513,0.0
52484.0,STARLINK-3887,PAYLOAD,2022-09-12 22:00:00,15.08846769,0.0001689,53.2204,17.3076,40.4965,81.9253,-0.0011496,-0.00018541,0.0,0 STARLINK-3887,1 52484U 22049AK  22255.91667824 -.00018541  00000-0 -11496-2 0  9993,2 52484  53.2204  17.3076 0001689  40.4965  81.9253 15.08846769  1303,6917.86,95.437,540.893,538.556,0.0
52484.0,STARLINK-3887,PAYLOAD,2022-09-13 14:00:01,15.0884418,0.0001758,53.221,14.3158,45.3973,100.232,-0.00073443,-0.00011959,0.0,0 STARLINK-3887,1 52484U 22049AK  22256.58334491 -.00011959  00000-0 -73443-3 0  9995,2 52484  53.2210  14.3158 0001758  45.3973 100.2320 15.08844180  1303,6917.868,95.437,540.9490000000002,538.516,0.0
52484.0,STARLINK-3887,PAYLOAD,2022-09-13 16:00:00,15.08841028,0.0001831,53.2204,13.9417,44.3197,194.2095,-0.00040212,-6.682e-05,0.0,0 STARLINK-3887,1 52484U 22049AK  22256.66667824 -.00006682  00000-0 -40212-3 0  9998,2 52484  53.2204  13.9417 0001831  44.3197 194.2095 15.08841028 20231,6917.877,95.437,541.009,538.476,0.0
52484.0,STARLINK-3887,PAYLOAD,2022-09-13 22:00:00,15.08840177,0.0001804,53.2207,12.8195,44.8093,112.3971,-0.0022046999999999,-0.00035205,0.0,0 STARLINK-3887,1 52484U 22049AK  22256.91667824 -.00035205  00000-0 -22047-2 0  9994,2 52484  53.2207  12.8195 0001804  44.8093 112.3971 15.08840177  1300,6917.88,95.438,540.993,538.497,0.0
52484.0,STARLINK-3887,PAYLOAD,2022-09-14 14:00:01,15.08791729,0.0001659,53.2186,9.8231,39.5386,140.8345,0.0038393999999999,0.00061266,0.0,0 STARLINK-3887,1 52484U 22049AK  22257.58334491  .00061266  00000-0  38394-2 0  9995,2 52484  53.2186   9.8231 0001659  39.5386 140.8345 15.08791729 20363,6918.028,95.441,541.0409999999998,538.745,0.0
52484.0,STARLINK-3887,PAYLOAD,2022-09-14 22:00:00,15.08841091,0.0001747,53.2203,8.3309,44.3938,147.5603,-0.0018995999999999,-0.00030394,0.0,0 STARLINK-3887,1 52484U 22049AK  22257.91667824 -.00030394  00000-0 -18996-2 0  9997,2 52484  53.2203   8.3309 0001747  44.3938 147.5603 15.08841091  1300,6917.877,95.437,540.951,538.534,0.0
52484.0,STARLINK-3887,PAYLOAD,2022-09-15 06:00:00,15.08817822,0.0001575999999999,53.2203,6.8336,50.6262,152.9173,0.0030073,0.00047869,0.0,0 STARLINK-3887,1 52484U 22049AK  22258.25001157  .00047869  00000-0  30073-2 0  9999,2 52484  53.2203   6.8336 0001576  50.6262 152.9173 15.08817822 20468,6917.948,95.439,540.903,538.7230000000002,0.0
52484.0,STARLINK-3887,PAYLOAD,2022-09-15 14:00:01,15.08852193,0.0001733999999999,53.2201,5.3391,45.0349,170.0985,-0.00069945,-0.00011406,0.0,0 STARLINK-3887,1 52484U 22049AK  22258.58334491 -.00011406  00000-0 -69945-3 0  9996,2 52484  53.2201   5.3391 0001734  45.0349 170.0985 15.08852193  1305,6917.843000000003,95.437,540.908,538.509,0.0
52484.0,STARLINK-3887,PAYLOAD,2022-09-15 17:49:11,15.08842362,0.0001778,53.221,4.6229,49.4097,310.705,0.00013806,1.91e-05,0.0,0 STARLINK-3887,1 52484U 22049AK  22258.74249912  .00001910  00000-0  13806-3 0  9999,2 52484  53.2210   4.6229 0001778  49.4097 310.7050 15.08842362 20543,6917.873000000001,95.437,540.9680000000002,538.508,0.0
52484.0,STARLINK-3887,PAYLOAD,2022-09-16 11:18:26,15.0884332,0.0001665,53.2206,1.3521,48.7032,311.4103,0.00020596,2.992e-05,0.0,0 STARLINK-3887,1 52484U 22049AK  22259.47113972  .00002992  00000-0  20596-3 0  9991,2 52484  53.2206   1.3521 0001665  48.7032 311.4103 15.08843320 20499,6917.87,95.437,540.887,538.5830000000002,0.0
52484.0,STARLINK-3887,PAYLOAD,2022-09-16 16:04:36,15.08838651,0.0001645,53.2208,0.4603,49.0397,311.0737,0.00012645,1.725e-05,0.0,0 STARLINK-3887,1 52484U 22049AK  22259.66986240  .00001725  00000-0  12645-3 0  9997,2 52484  53.2208   0.4603 0001645  49.0397 311.0737 15.08838651 20522,6917.885,95.438,540.888,538.612,0.0
52484.0,STARLINK-3887,PAYLOAD,2022-09-17 04:47:42,15.08825448,0.0001554999999999,53.2214,358.0811,54.1042,306.0094,-3.7389e-05,-8.83e-06,0.0,0 STARLINK-3887,1 52484U 22049AK  22260.19979610 -.00000883  00000-0 -37389-4 0  9999,2 52484  53.2214 358.0811 0001555  54.1042 306.0094 15.08825448 20762,6917.925,95.438,540.866,538.714,0.0
